{"type": "FeatureCollection", "features": [ {"type": "Feature", "properties": {"norad_id": 32366, "name": "FENGYUN 1C DEB", "group": "fengyun-1c-debris", "lat": -80.66074316067518, "lon": -106.95906033237574, "alt_km": 773.6248615292443, "timestamp": "2025-12-26T04:40:06.073146+00:00", "meta": {"OBJECT_NAME": "FENGYUN 1C DEB", "OBJECT_ID": "1999-025CZK", "EPOCH": "2025-12-24T02:10:11.884512", "MEAN_MOTION": 14.1390733, "ECCENTRICITY": 0.01370794, "INCLINATION": 96.7749, "RA_OF_ASC_NODE": 117.7307, "ARG_OF_PERICENTER": 233.0077, "MEAN_ANOMALY": 125.8492, "EPHEMERIS_TYPE": 0, "CLASSIFICATION_TYPE": "U", "NORAD_CAT_ID": 32366, "ELEMENT_SET_NO": 999, "REV_AT_EPOCH": 93364, "BSTAR": 0.001723619, "MEAN_MOTION_DOT": 3.548e-05, "MEAN_MOTION_DDOT": 0}, "tle": {"line1": "1 32366U 99025CZK 25358.09041533  .00003548  00000+0  17236-2 0  9993", "line2": "2 32366  96.7749 117.7307 0137079 233.0077 125.8492 14.13907330933646"}}, "geometry": {"type": "Point", "coordinates": [-106.95906033237574, -80.66074316067518]}}, {"type": "Feature", "properties": {"norad_id": 32372, "name": "FENGYUN 1C DEB", "group": "fengyun-1c-debris", "lat": 2.223502087534538, "lon": 57.820947877044105, "alt_km": 1469.5711302502596, "timestamp": "2025-12-26T04:40:06.073157+00:00", "meta": {"OBJECT_NAME": "FENGYUN 1C DEB", "OBJECT_ID": "1999-025CZR", "EPOCH": "2025-12-11T11:21:44.110080", "MEAN_MOTION": 13.35367723, "ECCENTRICITY": 0.04586798, "INCLINATION": 97.3163, "RA_OF_ASC_NODE": 226.9338, "ARG_OF_PERICENTER": 43.4714, "MEAN_ANOMALY": 320.164, "EPHEMERIS_TYPE": 0, "CLASSIFICATION_TYPE": "U", "NORAD_CAT_ID": 32372, "ELEMENT_SET_NO": 999, "REV_AT_EPOCH": 60123, "BSTAR": 0.003543376, "MEAN_MOTION_DOT": 3.249e-05, "MEAN_MOTION_DDOT": 0}, "tle": {"line1": "1 32372U 99025CZR 25345.47342720  .00003249  00000+0  35434-2 0  9998", "line2": "2 32372  97.3163 226.9338 0458679  43.4714 320.1640 13.35367723601231"}}, "geometry": {"type": "Point", "coordinates": [57.820947877044105, 2.223502087534538]}}, {"type": "Feature", "properties": {"norad_id": 32409, "name": "FENGYUN 1C DEB", "group": "fengyun-1c-debris", "lat": -19.78819867740406, "lon": -16.968225164154557, "alt_km": 644.2612727084852, "timestamp": "2025-12-26T04:40:06.073167+00:00", "meta": {"OBJECT_NAME": "FENGYUN 1C DEB", "OBJECT_ID": "1999-025CZV", "EPOCH": "2025-12-24T17:41:01.140864", "MEAN_MOTION": 14.76584409, "ECCENTRICITY": 0.00389222, "INCLINATION": 99.5678, "RA_OF_ASC_NODE": 164.7862, "ARG_OF_PERICENTER": 116.043, "MEAN_ANOMALY": 259.1652, "EPHEMERIS_TYPE": 0, "CLASSIFICATION_TYPE": "U", "NORAD_CAT_ID": 32409, "ELEMENT_SET_NO": 999, "REV_AT_EPOCH": 59016, "BSTAR": 0.0019717094, "MEAN_MOTION_DOT": 0.00013891, "MEAN_MOTION_DDOT": 0}, "tle": {"line1": "1 32409U 99025CZV 25358.73681876  .00013891  00000+0  19717-2 0  9990", "line2": "2 32409  99.5678 164.7862 0038922 116.0430 259.1652 14.76584409590166"}}, "geometry": {"type": "Point", "coordinates": [-16.968225164154557, -19.78819867740406]}}, {"type": "Feature", "properties": {"norad_id": 32411, "name": "FENGYUN 1C DEB", "group": "fengyun-1c-debris", "lat": 6.391433348243523, "lon": 98.26211379037761, "alt_km": 948.2858593927531, "timestamp": "2025-12-26T04:40:06.073177+00:00", "meta": {"OBJECT_NAME": "FENGYUN 1C DEB", "OBJECT_ID": "1999-025CZX", "EPOCH": "2025-12-22T01:03:16.729632", "MEAN_MOTION": 14.09827877, "ECCENTRICITY": 0.01237302, "INCLINATION": 98.4304, "RA_OF_ASC_NODE": 273.4205, "ARG_OF_PERICENTER": 349.967, "MEAN_ANOMALY": 9.9034, "EPHEMERIS_TYPE": 0, "CLASSIFICATION_TYPE": "U", "NORAD_CAT_ID": 32411, "ELEMENT_SET_NO": 999, "REV_AT_EPOCH": 65945, "BSTAR": 0.00050914783, "MEAN_MOTION_DOT": 9.2e-06, "MEAN_MOTION_DDOT": 0}, "tle": {"line1": "1 32411U 99025CZX 25356.04394363  .00000920  00000+0  50915-3 0  9992", "line2": "2 32411  98.4304 273.4205 0123730 349.9670   9.9034 14.09827877659455"}}, "geometry": {"type": "Point", "coordinates": [98.26211379037761, 6.391433348243523]}}, {"type": "Feature", "properties": {"norad_id": 32414, "name": "FENGYUN 1C DEB", "group": "fengyun-1c-debris", "lat": -29.041889933291795, "lon": 75.7967980565217, "alt_km": 804.5886396780397, "timestamp": "2025-12-26T04:40:06.073188+00:00", "meta": {"OBJECT_NAME": "FENGYUN 1C DEB", "OBJECT_ID": "1999-025DAA", "EPOCH": "2025-12-23T04:00:39.098880", "MEAN_MOTION": 14.18463584, "ECCENTRICITY": 0.00450064, "INCLINATION": 98.8569, "RA_OF_ASC_NODE": 67.8084, "ARG_OF_PERICENTER": 327.2126, "MEAN_ANOMALY": 32.6258, "EPHEMERIS_TYPE": 0, "CLASSIFICATION_TYPE": "U", "NORAD_CAT_ID": 32414, "ELEMENT_SET_NO": 999, "REV_AT_EPOCH": 93880, "BSTAR": 0.0013631783, "MEAN_MOTION_DOT": 2.8e-05, "MEAN_MOTION_DDOT": 0}, "tle": {"line1": "1 32414U 99025DAA 25357.16711920  .00002800  00000+0  13632-2 0  9994", "line2": "2 32414  98.8569  67.8084 0045006 327.2126  32.6258 14.18463584938800"}}, "geometry": {"type": "Point", "coordinates": [75.7967980565217, -29.041889933291795]}}, {"type": "Feature", "properties": {"norad_id": 32419, "name": "FENGYUN 1C DEB", "group": "fengyun-1c-debris", "lat": 77.69766146379061, "lon": -105.9036360523526, "alt_km": 848.3931278883083, "timestamp": "2025-12-26T04:40:06.073197+00:00", "meta": {"OBJECT_NAME": "FENGYUN 1C DEB", "OBJECT_ID": "1999-025DAF", "EPOCH": "2025-12-11T15:09:56.013984", "MEAN_MOTION": 14.09908253, "ECCENTRICITY": 0.02839501, "INCLINATION": 97.9459, "RA_OF_ASC_NODE": 281.0334, "ARG_OF_PERICENTER": 32.1797, "MEAN_ANOMALY": 329.6358, "EPHEMERIS_TYPE": 0, "CLASSIFICATION_TYPE": "U", "NORAD_CAT_ID": 32419, "ELEMENT_SET_NO": 999, "REV_AT_EPOCH": 63555, "BSTAR": 0.0013854285, "MEAN_MOTION_DOT": 3.513e-05, "MEAN_MOTION_DDOT": 0}, "tle": {"line1": "1 32419U 99025DAF 25345.63189831  .00003513  00000+0  13854-2 0  9996", "line2": "2 32419  97.9459 281.0334 0283950  32.1797 329.6358 14.09908253635552"}}, "geometry": {"type": "Point", "coordinates": [-105.9036360523526, 77.69766146379061]}}, {"type": "Feature", "properties": {"norad_id": 32422, "name": "FENGYUN 1C DEB", "group": "fengyun-1c-debris", "lat": 23.339453962010086, "lon": 126.36152236948773, "alt_km": 1033.9178142194323, "timestamp": "2025-12-26T04:40:06.073207+00:00", "meta": {"OBJECT_NAME": "FENGYUN 1C DEB", "OBJECT_ID": "1999-025DAJ", "EPOCH": "2025-12-18T14:28:39.254304", "MEAN_MOTION": 13.98014994, "ECCENTRICITY": 0.02982939, "INCLINATION": 97.8414, "RA_OF_ASC_NODE": 123.2691, "ARG_OF_PERICENTER": 275.9311, "MEAN_ANOMALY": 80.7936, "EPHEMERIS_TYPE": 0, "CLASSIFICATION_TYPE": "U", "NORAD_CAT_ID": 32422, "ELEMENT_SET_NO": 999, "REV_AT_EPOCH": 63215, "BSTAR": 0.00020595213, "MEAN_MOTION_DOT": 3.88e-06, "MEAN_MOTION_DDOT": 0}, "tle": {"line1": "1 32422U 99025DAJ 25352.60323211  .00000388  00000+0  20595-3 0  9995", "line2": "2 32422  97.8414 123.2691 0298293 275.9311  80.7936 13.98014994632151"}}, "geometry": {"type": "Point", "coordinates": [126.36152236948773, 23.339453962010086]}}, {"type": "Feature", "properties": {"norad_id": 32425, "name": "FENGYUN 1C DEB", "group": "fengyun-1c-debris", "lat": 34.84408080242001, "lon": -30.066074945966886, "alt_km": 898.7977473666206, "timestamp": "2025-12-26T04:40:06.073217+00:00", "meta": {"OBJECT_NAME": "FENGYUN 1C DEB", "OBJECT_ID": "1999-025DAM", "EPOCH": "2025-12-12T16:13:12.115488", "MEAN_MOTION": 14.16741504, "ECCENTRICITY": 0.02316015, "INCLINATION": 96.7012, "RA_OF_ASC_NODE": 135.0318, "ARG_OF_PERICENTER": 299.6477, "MEAN_ANOMALY": 58.1818, "EPHEMERIS_TYPE": 0, "CLASSIFICATION_TYPE": "U", "NORAD_CAT_ID": 32425, "ELEMENT_SET_NO": 999, "REV_AT_EPOCH": 69534, "BSTAR": 0.00075748036, "MEAN_MOTION_DOT": 1.938e-05, "MEAN_MOTION_DDOT": 0}, "tle": {"line1": "1 32425U 99025DAM 25346.67583467  .00001938  00000+0  75748-3 0  9991", "line2": "2 32425  96.7012 135.0318 0231601 299.6477  58.1818 14.16741504695342"}}, "geometry": {"type": "Point", "coordinates": [-30.066074945966886, 34.84408080242001]}}, {"type": "Feature", "properties": {"norad_id": 32430, "name": "FENGYUN 1C DEB", "group": "fengyun-1c-debris", "lat": 3.9626297798408183, "lon": -155.7167842753943, "alt_km": 850.8836637124377, "timestamp": "2025-12-26T04:40:06.073227+00:00", "meta": {"OBJECT_NAME": "FENGYUN 1C DEB", "OBJECT_ID": "1999-025DAS", "EPOCH": "2025-12-23T07:25:42.823488", "MEAN_MOTION": 13.70184988, "ECCENTRICITY": 0.03703317, "INCLINATION": 98.6958, "RA_OF_ASC_NODE": 21.0606, "ARG_OF_PERICENTER": 241.96, "MEAN_ANOMALY": 114.3635, "EPHEMERIS_TYPE": 0, "CLASSIFICATION_TYPE": "U", "NORAD_CAT_ID": 32430, "ELEMENT_SET_NO": 999, "REV_AT_EPOCH": 91348, "BSTAR": 0.002006586, "MEAN_MOTION_DOT": 2.83e-05, "MEAN_MOTION_DDOT": 0}, "tle": {"line1": "1 32430U 99025DAS 25357.30952342  .00002830  00000+0  20066-2 0  9995", "line2": "2 32430  98.6958  21.0606 0370331 241.9600 114.3635 13.70184988913480"}}, "geometry": {"type": "Point", "coordinates": [-155.7167842753943, 3.9626297798408183]}}, {"type": "Feature", "properties": {"norad_id": 32432, "name": "FENGYUN 1C DEB", "group": "fengyun-1c-debris", "lat": 43.41062958473937, "lon": 28.221683684199373, "alt_km": 806.3398238022246, "timestamp": "2025-12-26T04:40:06.073237+00:00", "meta": {"OBJECT_NAME": "FENGYUN 1C DEB", "OBJECT_ID": "1999-025DAU", "EPOCH": "2025-12-23T20:15:23.310720", "MEAN_MOTION": 14.52617697, "ECCENTRICITY": 0.0172618, "INCLINATION": 98.1696, "RA_OF_ASC_NODE": 33.7423, "ARG_OF_PERICENTER": 271.2687, "MEAN_ANOMALY": 86.874, "EPHEMERIS_TYPE": 0, "CLASSIFICATION_TYPE": "U", "NORAD_CAT_ID": 32432, "ELEMENT_SET_NO": 999, "REV_AT_EPOCH": 70856, "BSTAR": 0.0014396, "MEAN_MOTION_DOT": 7.12e-05, "MEAN_MOTION_DDOT": 0}, "tle": {"line1": "1 32432U 99025DAU 25357.84401980  .00007120  00000+0  14396-2 0  9999", "line2": "2 32432  98.1696  33.7423 0172618 271.2687  86.8740 14.52617697708562"}}, "geometry": {"type": "Point", "coordinates": [28.221683684199373, 43.41062958473937]}}]}